start=new Date('2023-05-26T00:00:00.000Z').valueOf();
sats=[{"FILE":"3917122","CENTER_NAME":"EARTH","DECAY_DATE":null,"NORAD_CAT_ID":"54841","SEMIMAJOR_AXIS":"6937.172","OBJECT_ID":"2022-177X","RCS_SIZE":"LARGE","OBJECT_TYPE":"PAYLOAD","EPHEMERIS_TYPE":"0","REF_FRAME":"TEME","ECCENTRICITY":"0.00015970","MEAN_MOTION":"15.02550527","TIME_SYSTEM":"UTC","TLE_LINE1":"1 54841U 22177X   23146.00002315 -.00021074  00000-0 -15490-2 0  9995","BSTAR":"-0.00154900000000","LAUNCH_DATE":"2022-12-28","EPOCH":"2023-05-26T00:00:02.000160","PERIOD":"95.837","ELEMENT_SET_NO":"999","TLE_LINE2":"2 54841  43.0031 268.3538 0001597 267.5029 353.0011 15.02550527  1302","MEAN_ANOMALY":"353.0011","RA_OF_ASC_NODE":"268.3538","OBJECT_NAME":"STARLINK-4659","COUNTRY_CODE":"US","PERIAPSIS":"557.929","MEAN_MOTION_DDOT":"0.0000000000000","MEAN_ELEMENT_THEORY":"SGP4","MEAN_MOTION_DOT":"-0.00021074","APOAPSIS":"560.145","ARG_OF_PERICENTER":"267.5029","REV_AT_EPOCH":"130","SITE":"AFETR","GP_ID":"232518596","CLASSIFICATION_TYPE":"U","INCLINATION":"43.0031"},{"SEMIMAJOR_AXIS":"6937.180","OBJECT_ID":"2022-177Y","FILE":"3917122","NORAD_CAT_ID":"54842","CENTER_NAME":"EARTH","DECAY_DATE":null,"OBJECT_TYPE":"PAYLOAD","RCS_SIZE":"LARGE","ECCENTRICITY":"0.00015730","MEAN_MOTION":"15.02547752","BSTAR":"0.00042877000000","TLE_LINE1":"1 54842U 22177Y   23145.80231967  .00005595  00000-0  42877-3 0  9998","TIME_SYSTEM":"UTC","EPHEMERIS_TYPE":"0","REF_FRAME":"TEME","EPOCH":"2023-05-25T19:15:20.419488","LAUNCH_DATE":"2022-12-28","MEAN_ANOMALY":"83.3334","TLE_LINE2":"2 54842  43.0037 269.2108 0001573 276.7329  83.3334 15.02547752 23694","OBJECT_NAME":"STARLINK-5387","COUNTRY_CODE":"US","RA_OF_ASC_NODE":"269.2108","PERIOD":"95.837","ELEMENT_SET_NO":"999","APOAPSIS":"560.137","MEAN_MOTION_DDOT":"0.0000000000000","PERIAPSIS":"557.954","MEAN_MOTION_DOT":"0.00005595","MEAN_ELEMENT_THEORY":"SGP4","ARG_OF_PERICENTER":"276.7329","SITE":"AFETR","REV_AT_EPOCH":"2369","INCLINATION":"43.0037","CLASSIFICATION_TYPE":"U","GP_ID":"232519348"},{"OBJECT_TYPE":"PAYLOAD","RCS_SIZE":"LARGE","OBJECT_ID":"2022-177Z","SEMIMAJOR_AXIS":"6938.296","NORAD_CAT_ID":"54843","DECAY_DATE":null,"CENTER_NAME":"EARTH","FILE":"3917122","EPOCH":"2023-05-25T19:29:57.883200","LAUNCH_DATE":"2022-12-28","BSTAR":"-0.00802170000000","TLE_LINE1":"1 54843U 22177Z   23145.81247550 -.00105957  00000-0 -80217-2 0  9999","TIME_SYSTEM":"UTC","MEAN_MOTION":"15.02185288","ECCENTRICITY":"0.00017770","REF_FRAME":"TEME","EPHEMERIS_TYPE":"0","APOAPSIS":"561.394","MEAN_MOTION_DOT":"-0.00105957","MEAN_ELEMENT_THEORY":"SGP4","MEAN_MOTION_DDOT":"0.0000000000000","PERIAPSIS":"558.928","OBJECT_NAME":"STARLINK-5304","COUNTRY_CODE":"US","RA_OF_ASC_NODE":"269.2868","TLE_LINE2":"2 54843  43.0032 269.2868 0001777 263.3746  96.6894 15.02185288 23694","MEAN_ANOMALY":"96.6894","ELEMENT_SET_NO":"999","PERIOD":"95.860","INCLINATION":"43.0032","CLASSIFICATION_TYPE":"U","GP_ID":"232519098","SITE":"AFETR","REV_AT_EPOCH":"2369","ARG_OF_PERICENTER":"263.3746"},{"TIME_SYSTEM":"UTC","TLE_LINE1":"1 54844U 22177AA  23145.79676527  .00004925  00000-0  37921-3 0  9993","BSTAR":"0.00037921000000","ECCENTRICITY":"0.00015800","MEAN_MOTION":"15.02551499","EPHEMERIS_TYPE":"0","REF_FRAME":"TEME","EPOCH":"2023-05-25T19:07:20.519328","LAUNCH_DATE":"2022-12-28","SEMIMAJOR_AXIS":"6937.169","OBJECT_ID":"2022-177AA","DECAY_DATE":null,"CENTER_NAME":"EARTH","NORAD_CAT_ID":"54844","FILE":"3917122","OBJECT_TYPE":"PAYLOAD","RCS_SIZE":"LARGE","REV_AT_EPOCH":"2369","SITE":"AFETR","ARG_OF_PERICENTER":"267.8499","CLASSIFICATION_TYPE":"U","INCLINATION":"43.0028","GP_ID":"232517846","RA_OF_ASC_NODE":"269.1523","OBJECT_NAME":"STARLINK-5388","COUNTRY_CODE":"US","MEAN_ANOMALY":"92.2163","TLE_LINE2":"2 54844  43.0028 269.1523 0001580 267.8499  92.2163 15.02551499 23695","ELEMENT_SET_NO":"999","PERIOD":"95.837","APOAPSIS":"560.130","MEAN_ELEMENT_THEORY":"SGP4","MEAN_MOTION_DOT":"0.00004925","PERIAPSIS":"557.938","MEAN_MOTION_DDOT":"0.0000000000000"},{"CLASSIFICATION_TYPE":"U","INCLINATION":"43.0032","GP_ID":"232518096","ARG_OF_PERICENTER":"270.5553","REV_AT_EPOCH":"2369","SITE":"AFETR","APOAPSIS":"560.137","PERIAPSIS":"557.945","MEAN_MOTION_DDOT":"0.0000000000000","MEAN_ELEMENT_THEORY":"SGP4","MEAN_MOTION_DOT":"0.00004134","MEAN_ANOMALY":"89.5108","TLE_LINE2":"2 54845  43.0032 269.2273 0001580 270.5553  89.5108 15.02549082 23699","RA_OF_ASC_NODE":"269.2273","OBJECT_NAME":"STARLINK-5082","COUNTRY_CODE":"US","PERIOD":"95.837","ELEMENT_SET_NO":"999","EPOCH":"2023-05-25T19:18:32.189472","LAUNCH_DATE":"2022-12-28","ECCENTRICITY":"0.00015800","MEAN_MOTION":"15.02549082","TIME_SYSTEM":"UTC","TLE_LINE1":"1 54845U 22177AB  23145.80453923  .00004134  00000-0  32082-3 0  9994","BSTAR":"0.00032082000000","REF_FRAME":"TEME","EPHEMERIS_TYPE":"0","OBJECT_TYPE":"PAYLOAD","RCS_SIZE":"LARGE","SEMIMAJOR_AXIS":"6937.176","OBJECT_ID":"2022-177AB","FILE":"3917122","DECAY_DATE":null,"CENTER_NAME":"EARTH","NORAD_CAT_ID":"54845"},{"ELEMENT_SET_NO":"999","PERIOD":"95.837","RA_OF_ASC_NODE":"269.1907","OBJECT_NAME":"STARLINK-5360","COUNTRY_CODE":"US","TLE_LINE2":"2 54846  43.0023 269.1907 0001682 269.5292  90.5358 15.02549756 23691","MEAN_ANOMALY":"90.5358","MEAN_ELEMENT_THEORY":"SGP4","MEAN_MOTION_DOT":"0.00005828","PERIAPSIS":"557.872","MEAN_MOTION_DDOT":"0.0000000000000","APOAPSIS":"560.206","REV_AT_EPOCH":"2369","SITE":"AFETR","ARG_OF_PERICENTER":"269.5292","GP_ID":"232518848","CLASSIFICATION_TYPE":"U","INCLINATION":"43.0023","DECAY_DATE":null,"CENTER_NAME":"EARTH","NORAD_CAT_ID":"54846","FILE":"3917122","SEMIMAJOR_AXIS":"6937.174","OBJECT_ID":"2022-177AC","RCS_SIZE":"LARGE","OBJECT_TYPE":"PAYLOAD","EPHEMERIS_TYPE":"0","REF_FRAME":"TEME","TIME_SYSTEM":"UTC","BSTAR":"0.00044596000000","TLE_LINE1":"1 54846U 22177AC  23145.79898889  .00005828  00000-0  44596-3 0  9991","ECCENTRICITY":"0.00016820","MEAN_MOTION":"15.02549756","LAUNCH_DATE":"2022-12-28","EPOCH":"2023-05-25T19:10:32.640096"},{"CLASSIFICATION_TYPE":"U","INCLINATION":"43.0027","GP_ID":"232519599","ARG_OF_PERICENTER":"261.2355","REV_AT_EPOCH":"2398","SITE":"AFETR","APOAPSIS":"560.089","PERIAPSIS":"558.036","MEAN_MOTION_DDOT":"0.0000000000000","MEAN_ELEMENT_THEORY":"SGP4","MEAN_MOTION_DOT":"0.00001046","MEAN_ANOMALY":"98.8320","TLE_LINE2":"2 54847  43.0027 243.7118 0001480 261.2355  98.8320 15.02542198 23988","RA_OF_ASC_NODE":"243.7118","COUNTRY_CODE":"US","OBJECT_NAME":"STARLINK-5061","PERIOD":"95.838","ELEMENT_SET_NO":"999","EPOCH":"2023-05-25T18:09:06.920640","LAUNCH_DATE":"2022-12-28","MEAN_MOTION":"15.02542198","ECCENTRICITY":"0.00014800","TIME_SYSTEM":"UTC","BSTAR":"0.00009249600000","TLE_LINE1":"1 54847U 22177AD  23145.75633010  .00001046  00000-0  92496-4 0  9992","EPHEMERIS_TYPE":"0","REF_FRAME":"TEME","OBJECT_TYPE":"PAYLOAD","RCS_SIZE":"LARGE","SEMIMAJOR_AXIS":"6937.197","OBJECT_ID":"2022-177AD","FILE":"3917122","DECAY_DATE":null,"CENTER_NAME":"EARTH","NORAD_CAT_ID":"54847"},{"APOAPSIS":"560.236","MEAN_MOTION_DDOT":"0.0000000000000","PERIAPSIS":"557.869","MEAN_MOTION_DOT":"0.00001420","MEAN_ELEMENT_THEORY":"SGP4","MEAN_ANOMALY":"86.0687","TLE_LINE2":"2 54848  43.0049 257.0376 0001706 273.9961  86.0687 15.02545412 23832","COUNTRY_CODE":"US","OBJECT_NAME":"STARLINK-5432","RA_OF_ASC_NODE":"257.0376","PERIOD":"95.837","ELEMENT_SET_NO":"999","INCLINATION":"43.0049","CLASSIFICATION_TYPE":"U","GP_ID":"232518347","ARG_OF_PERICENTER":"273.9961","REV_AT_EPOCH":"2383","SITE":"AFETR","OBJECT_TYPE":"PAYLOAD","RCS_SIZE":"LARGE","SEMIMAJOR_AXIS":"6937.188","OBJECT_ID":"2022-177AE","FILE":"3917122","NORAD_CAT_ID":"54848","DECAY_DATE":null,"CENTER_NAME":"EARTH","EPOCH":"2023-05-25T19:11:04.397280","LAUNCH_DATE":"2022-12-28","ECCENTRICITY":"0.00017060","MEAN_MOTION":"15.02545412","TLE_LINE1":"1 54848U 22177AE  23145.79935645  .00001420  00000-0  12014-3 0  9999","BSTAR":"0.00012014000000","TIME_SYSTEM":"UTC","EPHEMERIS_TYPE":"0","REF_FRAME":"TEME"},{"ARG_OF_PERICENTER":"269.9383","SITE":"AFETR","REV_AT_EPOCH":"2369","GP_ID":"232518597","CLASSIFICATION_TYPE":"U","INCLINATION":"43.0028","PERIOD":"95.838","ELEMENT_SET_NO":"999","MEAN_ANOMALY":"90.1289","TLE_LINE2":"2 54849  43.0028 269.1493 0001485 269.9383  90.1289 15.02536976 23694","RA_OF_ASC_NODE":"269.1493","COUNTRY_CODE":"US","OBJECT_NAME":"STARLINK-5434","PERIAPSIS":"558.048","MEAN_MOTION_DDOT":"0.0000000000000","MEAN_ELEMENT_THEORY":"SGP4","MEAN_MOTION_DOT":"0.00000277","APOAPSIS":"560.109","EPHEMERIS_TYPE":"0","REF_FRAME":"TEME","ECCENTRICITY":"0.00014850","MEAN_MOTION":"15.02536976","TIME_SYSTEM":"UTC","TLE_LINE1":"1 54849U 22177AF  23145.79455134  .00000277  00000-0  35602-4 0  9998","BSTAR":"0.00003560200000","LAUNCH_DATE":"2022-12-28","EPOCH":"2023-05-25T19:04:09.235776","FILE":"3917122","DECAY_DATE":null,"CENTER_NAME":"EARTH","NORAD_CAT_ID":"54849","SEMIMAJOR_AXIS":"6937.214","OBJECT_ID":"2022-177AF","RCS_SIZE":"LARGE","OBJECT_TYPE":"PAYLOAD"},{"PERIAPSIS":"558.027","MEAN_MOTION_DDOT":"0.0000000000000","MEAN_ELEMENT_THEORY":"SGP4","MEAN_MOTION_DOT":"-0.00000334","APOAPSIS":"560.108","PERIOD":"95.838","ELEMENT_SET_NO":"999","TLE_LINE2":"2 54850  43.0042 256.9950 0001500 268.9853  91.0817 15.02540465 23834","MEAN_ANOMALY":"91.0817","RA_OF_ASC_NODE":"256.9950","COUNTRY_CODE":"US","OBJECT_NAME":"STARLINK-5087","GP_ID":"232519349","CLASSIFICATION_TYPE":"U","INCLINATION":"43.0042","ARG_OF_PERICENTER":"268.9853","SITE":"AFETR","REV_AT_EPOCH":"2383","RCS_SIZE":"LARGE","OBJECT_TYPE":"PAYLOAD","FILE":"3917122","DECAY_DATE":null,"CENTER_NAME":"EARTH","NORAD_CAT_ID":"54850","SEMIMAJOR_AXIS":"6937.203","OBJECT_ID":"2022-177AG","LAUNCH_DATE":"2022-12-28","EPOCH":"2023-05-25T19:03:05.620320","EPHEMERIS_TYPE":"0","REF_FRAME":"TEME","ECCENTRICITY":"0.00015000","MEAN_MOTION":"15.02540465","TIME_SYSTEM":"UTC","BSTAR":"-0.00000964080000","TLE_LINE1":"1 54850U 22177AG  23145.79381505 -.00000334  00000-0 -96408-5 0  9998"}];
